{"type": "FeatureCollection", "features": [{"type": "Feature", "properties": {"name": "平朔矿区实际开采范围（由矿业权先验+土地覆被扰动连通域勾勒，含1.5km缓冲）"}, "geometry": {"type": "Polygon", "coordinates": [[[112.29265502495532, 39.47519647885773], [112.2925802989798, 39.48810538673825], [112.29622634780469, 39.49323720761447], [112.30466399531048, 39.49796194863648], [112.31082401227675, 39.51287895338109], [112.31891753881848, 39.516512269129066], [112.33330118780228, 39.51629023323281], [112.34130838774912, 39.52746390240204], [112.35200406739, 39.53415505167757], [112.36193939610791, 39.53514768716396], [112.37392729759529, 39.53050247906556], [112.38649369179201, 39.53324034955737], [112.41004017339131, 39.53244380966621], [112.41673290159088, 39.53050088899082], [112.4278125370291, 39.517680516192904], [112.4278131093307, 39.506303173976946], [112.43804032351362, 39.50157354767749], [112.44202297540157, 39.497272795590746], [112.44548863950351, 39.478584607793486], [112.444944807661, 39.468117710951724], [112.43954693747754, 39.45971583799863], [112.43258489031264, 39.45622760731854], [112.40937341343138, 39.4546899143545], [112.39425098484456, 39.45656631872732], [112.39573368684583, 39.44091459980972], [112.38105787021854, 39.427572506534695], [112.37072802964707, 39.42351067672219], [112.35350459560345, 39.42427939004099], [112.34680583731135, 39.42622549944923], [112.34093426832628, 39.43418869327665], [112.340398137539, 39.44225858005229], [112.32824370267319, 39.44659639668359], [112.31525305614473, 39.44507176374843], [112.30699904393477, 39.44903517540525], [112.30026829341283, 39.4565746665373], [112.29942781494641, 39.466844023117766], [112.29265502495532, 39.47519647885773]]]}}]}