{
 "type": "FeatureCollection",
 "properties": {
  "name": "黑岱沟—哈尔乌素矿区",
  "purpose": "P3 第二矿区：准格尔旗露天矿群，文献范围 111°10′—111°25′E、39°25′—39°59′N 内取核心区",
  "note": "矿地智预 二区冲刺工作包 2026-09-29"
 },
 "features": [
  {
   "type": "Feature",
   "properties": {
    "name": "黑岱沟—哈尔乌素矿区"
   },
   "geometry": {
    "type": "Polygon",
    "coordinates": [
     [
      [
       111.15,
       39.58
      ],
      [
       111.35,
       39.58
      ],
      [
       111.35,
       39.8
      ],
      [
       111.15,
       39.8
      ],
      [
       111.15,
       39.58
      ]
     ]
    ]
   }
  }
 ]
}