{
 "type": "FeatureCollection",
 "properties": {
  "name": "平朔全矿区（安太堡—安家岭—东露天）",
  "purpose": "P1 主研究区：北移覆盖安太堡(39.466N,112.338E)/安家岭采排复垦区，南界保留原示范区以便对比",
  "note": "矿地智预 二区冲刺工作包 2026-09-29"
 },
 "features": [
  {
   "type": "Feature",
   "properties": {
    "name": "平朔全矿区（安太堡—安家岭—东露天）"
   },
   "geometry": {
    "type": "Polygon",
    "coordinates": [
     [
      [
       112.27,
       39.36
      ],
      [
       112.49,
       39.36
      ],
      [
       112.49,
       39.55
      ],
      [
       112.27,
       39.55
      ],
      [
       112.27,
       39.36
      ]
     ]
    ]
   }
  }
 ]
}