{"type": "FeatureCollection", "properties": {"note": "矿点先验(GEM/文献)+CLCD2020扰动类大连通域(7x7闭合)自动提取；WGS84", "crs": "EPSG:4326"}, "features": [{"type": "Feature", "properties": {"name": "pingshuo-full 采排区"}, "geometry": {"type": "Polygon", "coordinates": [[[112.358579, 39.524728], [112.358574, 39.524458], [112.358225, 39.524462], [112.358204, 39.523381], [112.355761, 39.52341], [112.355756, 39.523139], [112.355407, 39.523143], [112.355402, 39.522873], [112.3561, 39.522865], [112.356094, 39.522595], [112.356443, 39.522591], [112.356433, 39.52205], [112.356782, 39.522046], [112.356745, 39.520154], [112.353954, 39.520187], [112.353964, 39.520727], [112.353615, 39.520732], [112.35362, 39.521002], [112.353272, 39.521006], [112.353266, 39.520736], [112.352219, 39.520748], [112.352214, 39.520478], [112.351865, 39.520482], [112.351855, 39.519941], [112.352204, 39.519937], [112.352188, 39.519126], [112.35463, 39.519098], [112.354625, 39.518828], [112.354974, 39.518824], [112.354948, 39.517472], [112.355646, 39.517464], [112.355609, 39.515573], [112.354911, 39.515581], [112.354901, 39.51504], [112.354203, 39.515048], [112.354198, 39.514778], [112.3535, 39.514786], [112.353489, 39.514246], [112.351047, 39.514274], [112.351052, 39.514544], [112.348959, 39.514569], [112.348964, 39.514839], [112.348615, 39.514843], [112.348573, 39.512681], [112.348225, 39.512685], [112.348204, 39.511604], [112.346459, 39.511624], [112.346449, 39.511084], [112.346798, 39.51108], [112.346792, 39.51081], [112.34749, 39.510802], [112.347485, 39.510531], [112.347834, 39.510527], [112.347823, 39.509987], [112.348172, 39.509983], [112.348125, 39.507551], [112.347776, 39.507555], [112.347761, 39.506744], [112.347412, 39.506748], [112.347407, 39.506478], [112.343569, 39.506522], [112.343548, 39.505441], [112.341106, 39.505469], [112.341127, 39.50655], [112.340778, 39.506554], [112.340784, 39.506825], [112.340086, 39.506833], [112.340055, 39.505211], [112.342148, 39.505187], [112.342106, 39.503025], [112.339664, 39.503053], [112.339706, 39.505215], [112.338659, 39.505227], [112.338633, 39.503876], [112.337587, 39.503888], [112.337582, 39.503618], [112.335489, 39.503642], [112.335468, 39.502561], [112.333375, 39.502585], [112.333349, 39.501234], [112.333, 39.501238], [112.332995, 39.500967], [112.332646, 39.500971], [112.332641, 39.500701], [112.32985, 39.500733], [112.329861, 39.501274], [112.328814, 39.501286], [112.328855, 39.503448], [112.329553, 39.50344], [112.329579, 39.504791], [112.32923, 39.504795], [112.329235, 39.505065], [112.328537, 39.505073], [112.328542, 39.505343], [112.324007, 39.505395], [112.324012, 39.505665], [112.322617, 39.505681], [112.322622, 39.505951], [112.321227, 39.505967], [112.321186, 39.503805], [112.320837, 39.503809], [112.320832, 39.503539], [112.320483, 39.503543], [112.320442, 39.501381], [112.320791, 39.501377], [112.320755, 39.499485], [112.32215, 39.499469], [112.322104, 39.497037], [112.319663, 39.497065], [112.319688, 39.498416], [112.318991, 39.498424], [112.318955, 39.496532], [112.321745, 39.496501], [112.32174, 39.49623], [112.323135, 39.496215], [112.32313, 39.495944], [112.323479, 39.49594], [112.323443, 39.494049], [112.322746, 39.494057], [112.32273, 39.493246], [112.322033, 39.493254], [112.321997, 39.491362], [112.317811, 39.49141], [112.317745, 39.487896], [112.31635, 39.487912], [112.316345, 39.487642], [112.315647, 39.48765], [112.315642, 39.48738], [112.317735, 39.487356], [112.31773, 39.487086], [112.318078, 39.487082], [112.318073, 39.486811], [112.318422, 39.486808], [112.318402, 39.485727], [112.319099, 39.485719], [112.319089, 39.485178], [112.320135, 39.485166], [112.32011, 39.483815], [112.321156, 39.483803], [112.321146, 39.483263], [112.321495, 39.483259], [112.321484, 39.482718], [112.322182, 39.48271], [112.322187, 39.48298], [112.322884, 39.482973], [112.322895, 39.483513], [112.325336, 39.483485], [112.325269, 39.479972], [112.322828, 39.48], [112.322849, 39.481081], [112.3225, 39.481085], [112.322495, 39.480815], [112.322146, 39.480819], [112.322136, 39.480278], [112.319346, 39.48031], [112.319356, 39.48085], [112.317612, 39.48087], [112.317602, 39.480329], [112.314115, 39.480369], [112.31412, 39.480639], [112.313771, 39.480643], [112.313807, 39.482535], [112.316248, 39.482507], [112.316253, 39.482778], [112.316951, 39.48277], [112.316961, 39.48331], [112.316612, 39.483314], [112.316643, 39.484936], [112.315248, 39.484951], [112.315243, 39.484681], [112.311755, 39.48472], [112.31176, 39.484991], [112.310365, 39.485006], [112.31037, 39.485277], [112.309324, 39.485288], [112.309329, 39.485559], [112.30898, 39.485563], [112.308985, 39.485833], [112.308636, 39.485837], [112.308642, 39.486107], [112.307944, 39.486115], [112.307949, 39.486385], [112.306903, 39.486397], [112.306893, 39.485856], [112.307241, 39.485853], [112.307236, 39.485582], [112.307934, 39.485574], [112.307924, 39.485034], [112.309668, 39.485014], [112.309662, 39.484744], [112.310709, 39.484732], [112.310668, 39.48257], [112.308227, 39.482598], [112.308232, 39.482868], [112.307883, 39.482872], [112.307888, 39.483142], [112.307191, 39.48315], [112.307201, 39.483691], [112.306503, 39.483698], [112.306498, 39.483428], [112.305103, 39.483444], [112.305098, 39.483174], [112.305796, 39.483166], [112.305791, 39.482895], [112.307186, 39.48288], [112.307181, 39.48261], [112.307529, 39.482606], [112.307494, 39.480714], [112.307145, 39.480718], [112.307125, 39.479637], [112.305381, 39.479656], [112.305376, 39.479386], [112.308166, 39.479355], [112.308156, 39.478814], [112.308854, 39.478806], [112.308843, 39.478266], [112.309541, 39.478258], [112.309536, 39.477988], [112.310582, 39.477976], [112.310577, 39.477706], [112.311623, 39.477694], [112.311618, 39.477424], [112.311967, 39.47742], [112.311931, 39.475528], [112.311234, 39.475536], [112.311229, 39.475266], [112.31088, 39.47527], [112.310875, 39.474999], [112.311224, 39.474996], [112.311183, 39.472834], [112.316065, 39.472778], [112.316054, 39.472238], [112.316403, 39.472234], [112.316383, 39.471153], [112.31708, 39.471145], [112.317055, 39.469794], [112.317403, 39.46979], [112.317398, 39.46952], [112.317747, 39.469516], [112.317742, 39.469245], [112.318091, 39.469241], [112.318034, 39.466269], [112.317337, 39.466277], [112.317332, 39.466006], [112.316983, 39.46601], [112.316978, 39.46574], [112.314189, 39.465772], [112.314194, 39.466042], [112.313497, 39.46605], [112.313487, 39.465509], [112.313835, 39.465505], [112.31383, 39.465235], [112.314179, 39.465231], [112.314133, 39.462799], [112.313087, 39.462811], [112.313046, 39.460649], [112.313744, 39.460641], [112.313734, 39.4601], [112.314779, 39.460089], [112.314774, 39.459818], [112.315472, 39.45981], [112.315467, 39.45954], [112.315815, 39.459536], [112.3158, 39.458726], [112.316846, 39.458714], [112.316851, 39.458984], [112.3172, 39.45898], [112.317215, 39.459791], [112.320004, 39.459759], [112.319999, 39.459489], [112.322091, 39.459465], [112.322044, 39.457033], [112.318907, 39.457068], [112.318892, 39.456258], [112.318543, 39.456262], [112.318538, 39.455991], [112.318189, 39.455995], [112.318179, 39.455455], [112.318528, 39.455451], [112.318533, 39.455721], [112.31923, 39.455713], [112.319235, 39.455984], [112.319584, 39.45598], [112.319589, 39.45625], [112.320635, 39.456238], [112.320645, 39.456778], [112.322388, 39.456759], [112.322429, 39.458921], [112.325218, 39.458889], [112.325213, 39.458619], [112.325561, 39.458615], [112.325567, 39.458885], [112.328356, 39.458853], [112.32835, 39.458583], [112.33358, 39.458523], [112.333575, 39.458253], [112.335318, 39.458233], [112.335292, 39.456881], [112.337732, 39.456853], [112.337722, 39.456313], [112.338419, 39.456305], [112.338403, 39.455494], [112.338752, 39.45549], [112.338731, 39.454409], [112.339429, 39.454401], [112.339454, 39.455752], [112.3405, 39.45574], [112.340516, 39.456551], [112.338773, 39.456571], [112.338809, 39.458463], [112.341947, 39.458427], [112.341936, 39.457886], [112.342982, 39.457874], [112.342935, 39.455442], [112.341889, 39.455454], [112.341853, 39.453562], [112.342202, 39.453558], [112.342217, 39.454369], [112.342566, 39.454365], [112.342576, 39.454905], [112.342925, 39.454901], [112.34293, 39.455172], [112.345719, 39.455139], [112.345698, 39.454058], [112.346395, 39.45405], [112.34638, 39.45324], [112.347425, 39.453228], [112.347394, 39.451606], [112.349486, 39.451582], [112.349475, 39.451041], [112.350521, 39.451029], [112.350511, 39.450489], [112.350859, 39.450485], [112.350854, 39.450214], [112.351202, 39.45021], [112.351192, 39.44967], [112.351541, 39.449666], [112.351535, 39.449396], [112.351884, 39.449392], [112.351879, 39.449121], [112.352576, 39.449113], [112.35256, 39.448302], [112.353606, 39.44829], [112.353601, 39.44802], [112.353949, 39.448016], [112.353944, 39.447746], [112.354293, 39.447742], [112.354287, 39.447471], [112.35603, 39.447451], [112.356025, 39.447181], [112.356373, 39.447177], [112.356363, 39.446636], [112.357409, 39.446624], [112.357388, 39.445543], [112.35913, 39.445523], [112.359125, 39.445253], [112.359474, 39.445248], [112.359468, 39.444978], [112.360166, 39.44497], [112.360139, 39.443619], [112.361185, 39.443607], [112.36118, 39.443336], [112.363271, 39.443312], [112.36325, 39.442231], [112.363598, 39.442227], [112.363593, 39.441957], [112.363942, 39.441952], [112.36392, 39.440872], [112.365315, 39.440855], [112.365272, 39.438693], [112.363181, 39.438718], [112.363144, 39.436826], [112.362447, 39.436834], [112.362442, 39.436564], [112.357912, 39.436617], [112.357906, 39.436347], [112.357209, 39.436355], [112.357204, 39.436085], [112.356856, 39.436089], [112.35685, 39.435818], [112.356153, 39.435827], [112.356148, 39.435556], [112.354754, 39.435573], [112.354744, 39.435032], [112.36032, 39.434967], [112.360314, 39.434697], [112.360663, 39.434693], [112.360673, 39.435233], [112.362416, 39.435213], [112.362426, 39.435753], [112.363472, 39.435741], [112.363493, 39.436822], [112.365932, 39.436793], [112.365922, 39.436253], [112.366967, 39.436241], [112.366946, 39.43516], [112.367295, 39.435155], [112.367279, 39.434345], [112.367627, 39.434341], [112.367622, 39.43407], [112.368319, 39.434062], [112.368324, 39.434332], [112.369718, 39.434316], [112.369734, 39.435127], [112.371128, 39.43511], [112.37116, 39.436732], [112.372903, 39.436711], [112.372929, 39.438062], [112.373278, 39.438058], [112.373283, 39.438329], [112.372586, 39.438337], [112.372612, 39.439688], [112.37087, 39.439709], [112.370907, 39.4416], [112.371255, 39.441596], [112.371287, 39.443218], [112.369893, 39.443234], [112.369888, 39.442964], [112.367448, 39.442993], [112.367453, 39.443263], [112.366756, 39.443271], [112.366793, 39.445163], [112.367142, 39.445159], [112.367147, 39.445429], [112.367496, 39.445425], [112.367511, 39.446235], [112.3703, 39.446203], [112.370289, 39.445662], [112.371335, 39.44565], [112.371324, 39.445109], [112.37237, 39.445097], [112.372375, 39.445367], [112.372724, 39.445363], [112.372734, 39.445904], [112.376569, 39.445858], [112.376531, 39.443967], [112.375834, 39.443975], [112.375829, 39.443705], [112.376177, 39.4437], [112.37613, 39.441268], [112.376478, 39.441264], [112.376483, 39.441534], [112.37718, 39.441526], [112.377207, 39.442877], [112.377556, 39.442873], [112.377572, 39.443684], [112.37792, 39.44368], [112.377925, 39.44395], [112.382456, 39.443896], [112.382473, 39.444707], [112.382821, 39.444703], [112.382832, 39.445243], [112.382483, 39.445248], [112.382489, 39.445518], [112.381443, 39.44553], [112.381464, 39.446611], [112.381116, 39.446615], [112.381121, 39.446886], [112.380772, 39.44689], [112.38081, 39.448781], [112.380113, 39.44879], [112.380118, 39.44906], [112.37733, 39.449093], [112.37734, 39.449633], [112.376992, 39.449638], [112.376986, 39.449367], [112.376638, 39.449371], [112.376627, 39.448831], [112.376279, 39.448835], [112.376273, 39.448565], [112.37697, 39.448557], [112.376933, 39.446665], [112.375887, 39.446677], [112.375882, 39.446407], [112.371699, 39.446456], [112.371705, 39.446727], [112.371356, 39.446731], [112.371361, 39.447001], [112.369967, 39.447017], [112.370004, 39.448909], [112.36861, 39.448926], [112.368652, 39.451088], [112.371092, 39.451059], [112.371077, 39.450248], [112.371774, 39.45024], [112.37179, 39.451051], [112.372138, 39.451046], [112.372175, 39.452938], [112.375661, 39.452897], [112.375666, 39.453167], [112.376015, 39.453163], [112.376026, 39.453704], [112.37498, 39.453716], [112.375017, 39.455608], [112.377806, 39.455575], [112.377811, 39.455845], [112.376068, 39.455865], [112.376111, 39.458027], [112.375762, 39.458032], [112.375826, 39.461274], [112.375129, 39.461283], [112.375092, 39.459391], [112.372651, 39.45942], [112.372694, 39.461582], [112.37374, 39.461569], [112.373772, 39.463191], [112.376561, 39.463158], [112.376534, 39.461807], [112.376883, 39.461803], [112.376925, 39.463964], [112.375879, 39.463977], [112.375922, 39.466139], [112.376271, 39.466135], [112.376281, 39.466675], [112.377676, 39.466659], [112.377681, 39.466929], [112.37803, 39.466925], [112.378056, 39.468276], [112.378405, 39.468272], [112.37841, 39.468542], [112.376667, 39.468563], [112.376704, 39.470454], [112.379145, 39.470425], [112.379124, 39.469344], [112.380518, 39.469328], [112.380524, 39.469598], [112.38157, 39.469586], [112.381581, 39.470126], [112.386113, 39.470072], [112.386108, 39.469802], [112.387851, 39.469781], [112.387846, 39.469511], [112.389241, 39.469494], [112.389235, 39.469224], [112.391327, 39.469199], [112.391311, 39.468388], [112.392706, 39.468372], [112.3927, 39.468101], [112.397233, 39.468047], [112.397249, 39.468858], [112.39969, 39.468828], [112.399679, 39.468288], [112.400376, 39.46828], [112.400382, 39.46855], [112.404217, 39.468504], [112.404211, 39.468233], [112.404909, 39.468225], [112.40492, 39.468765], [112.406314, 39.468748], [112.40632, 39.469019], [112.409458, 39.468981], [112.409419, 39.467089], [112.408722, 39.467098], [112.408717, 39.466827], [112.409065, 39.466823], [112.409044, 39.465742], [112.409392, 39.465738], [112.409387, 39.465468], [112.409735, 39.465463], [112.409741, 39.465734], [112.410089, 39.465729], [112.410117, 39.467081], [112.410465, 39.467076], [112.410476, 39.467617], [112.411174, 39.467608], [112.411217, 39.46977], [112.414007, 39.469736], [112.41399, 39.468926], [112.414688, 39.468917], [112.414677, 39.468377], [112.415723, 39.468364], [112.415717, 39.468094], [112.418158, 39.468064], [112.418141, 39.467253], [112.418839, 39.467245], [112.418833, 39.466975], [112.419182, 39.46697], [112.419198, 39.467781], [112.421987, 39.467747], [112.421982, 39.467477], [112.424074, 39.467451], [112.424063, 39.466911], [112.424411, 39.466906], [112.4244, 39.466366], [112.424749, 39.466362], [112.424738, 39.465821], [112.425435, 39.465813], [112.425446, 39.466353], [112.425795, 39.466349], [112.425806, 39.466889], [112.428247, 39.466859], [112.428241, 39.466589], [112.428938, 39.466581], [112.428949, 39.467121], [112.428601, 39.467125], [112.428623, 39.468206], [112.42688, 39.468228], [112.426918, 39.470119], [112.430056, 39.470081], [112.430034, 39.469], [112.43108, 39.468987], [112.431086, 39.469257], [112.430737, 39.469261], [112.430776, 39.471153], [112.431124, 39.471149], [112.43113, 39.471419], [112.429735, 39.471436], [112.429746, 39.471977], [112.428352, 39.471994], [112.428407, 39.474696], [112.428756, 39.474692], [112.428767, 39.475232], [112.429464, 39.475224], [112.429475, 39.475764], [112.430521, 39.475751], [112.430554, 39.477373], [112.4316, 39.47736], [112.431606, 39.47763], [112.431257, 39.477634], [112.431263, 39.477905], [112.428822, 39.477935], [112.42885, 39.479286], [112.427803, 39.479299], [112.427853, 39.481731], [112.428202, 39.481726], [112.428218, 39.482537], [112.430311, 39.482511], [112.430338, 39.483863], [112.42999, 39.483867], [112.430006, 39.484678], [112.429309, 39.484686], [112.429325, 39.485497], [112.428977, 39.485501], [112.429021, 39.487663], [112.429719, 39.487654], [112.429724, 39.487925], [112.429375, 39.487929], [112.429381, 39.488199], [112.427637, 39.488221], [112.427676, 39.490112], [112.428025, 39.490108], [112.428047, 39.491189], [112.428744, 39.49118], [112.428777, 39.492802], [112.429126, 39.492798], [112.429137, 39.493338], [112.427393, 39.493359], [112.427404, 39.4939], [112.426707, 39.493908], [112.426712, 39.494179], [112.424968, 39.4942], [112.424985, 39.495011], [112.422543, 39.495041], [112.422538, 39.49477], [112.423933, 39.494753], [112.423894, 39.492862], [112.422848, 39.492875], [112.422843, 39.492604], [112.421099, 39.492626], [112.421088, 39.492085], [112.418995, 39.492111], [112.418979, 39.4913], [112.417583, 39.491317], [112.417562, 39.490236], [112.416864, 39.490245], [112.416848, 39.489434], [112.414057, 39.489468], [112.414063, 39.489738], [112.413365, 39.489747], [112.413404, 39.491638], [112.41445, 39.491625], [112.414466, 39.492436], [112.414118, 39.49244], [112.414151, 39.494062], [112.410663, 39.494104], [112.410674, 39.494645], [112.410325, 39.494649], [112.410347, 39.49573], [112.409998, 39.495734], [112.409976, 39.494653], [112.409627, 39.494657], [112.409616, 39.494117], [112.409268, 39.494121], [112.409262, 39.493851], [112.407867, 39.493868], [112.407861, 39.493598], [112.405071, 39.493631], [112.405077, 39.493902], [112.402286, 39.493935], [112.402324, 39.495827], [112.401627, 39.495835], [112.401632, 39.496106], [112.399539, 39.496131], [112.399545, 39.496401], [112.399196, 39.496405], [112.399191, 39.496135], [112.397795, 39.496152], [112.397757, 39.49426], [112.39706, 39.494268], [112.397055, 39.493998], [112.396357, 39.494007], [112.396352, 39.493736], [112.395654, 39.493745], [112.395643, 39.493204], [112.396341, 39.493196], [112.396287, 39.490494], [112.395938, 39.490498], [112.395932, 39.490228], [112.393142, 39.490261], [112.393132, 39.48972], [112.39069, 39.48975], [112.390696, 39.49002], [112.389998, 39.490028], [112.390003, 39.490299], [112.389655, 39.490303], [112.389698, 39.492465], [112.392488, 39.492431], [112.392493, 39.492701], [112.392145, 39.492706], [112.39215, 39.492976], [112.391801, 39.49298], [112.391796, 39.49271], [112.389354, 39.492739], [112.389365, 39.49328], [112.387621, 39.4933], [112.387626, 39.493571], [112.387278, 39.493575], [112.387288, 39.494115], [112.386591, 39.494124], [112.386618, 39.495475], [112.38592, 39.495483], [112.385979, 39.498456], [112.386328, 39.498452], [112.386333, 39.498722], [112.386682, 39.498718], [112.386687, 39.498988], [112.387385, 39.498979], [112.387417, 39.500601], [112.388813, 39.500584], [112.388818, 39.500855], [112.392655, 39.500809], [112.392612, 39.498647], [112.391217, 39.498663], [112.391211, 39.498393], [112.393304, 39.498368], [112.393347, 39.50053], [112.39544, 39.500505], [112.395446, 39.500775], [112.398934, 39.500733], [112.398896, 39.498842], [112.399245, 39.498837], [112.399283, 39.500729], [112.402422, 39.500691], [112.402395, 39.49934], [112.402744, 39.499336], [112.402755, 39.499876], [112.405196, 39.499847], [112.405191, 39.499577], [112.406586, 39.49956], [112.406575, 39.499019], [112.406924, 39.499015], [112.406919, 39.498745], [112.411453, 39.49869], [112.411448, 39.49842], [112.412494, 39.498407], [112.412549, 39.501109], [112.412898, 39.501105], [112.412903, 39.501375], [112.414647, 39.501354], [112.414653, 39.501624], [112.414304, 39.501628], [112.414309, 39.501899], [112.413961, 39.501903], [112.413966, 39.502173], [112.413617, 39.502177], [112.413634, 39.502988], [112.412238, 39.503005], [112.412266, 39.504356], [112.411917, 39.50436], [112.411933, 39.505171], [112.410887, 39.505184], [112.410914, 39.506535], [112.410216, 39.506544], [112.410227, 39.507084], [112.409878, 39.507088], [112.409889, 39.507629], [112.409192, 39.507637], [112.409241, 39.510069], [112.410287, 39.510057], [112.41032, 39.511678], [112.411716, 39.511661], [112.411721, 39.511931], [112.414163, 39.511902], [112.414196, 39.513523], [112.414545, 39.513519], [112.414567, 39.5146], [112.413869, 39.514608], [112.413875, 39.514878], [112.413526, 39.514883], [112.413548, 39.515964], [112.411454, 39.515989], [112.411487, 39.51761], [112.410091, 39.517627], [112.410097, 39.517898], [112.409748, 39.517902], [112.409786, 39.519793], [112.410484, 39.519785], [112.41049, 39.520055], [112.408745, 39.520076], [112.408778, 39.521698], [112.408429, 39.521702], [112.408412, 39.520891], [112.398992, 39.521005], [112.398997, 39.521275], [112.395857, 39.521313], [112.395862, 39.521583], [112.394117, 39.521604], [112.394123, 39.521875], [112.393774, 39.521879], [112.393779, 39.522149], [112.387848, 39.52222], [112.387853, 39.52249], [112.387504, 39.522494], [112.387488, 39.521684], [112.385045, 39.521713], [112.385035, 39.521172], [112.38329, 39.521193], [112.383285, 39.520923], [112.38468, 39.520906], [112.384637, 39.518744], [112.382195, 39.518773], [112.382216, 39.519854], [112.380821, 39.519871], [112.380815, 39.519601], [112.381862, 39.519588], [112.381798, 39.516345], [112.381449, 39.51635], [112.381444, 39.516079], [112.380746, 39.516088], [112.38074, 39.515817], [112.378996, 39.515838], [112.378991, 39.515568], [112.376199, 39.515601], [112.376237, 39.517493], [112.37833, 39.517468], [112.378336, 39.517738], [112.376242, 39.517763], [112.376279, 39.519654], [112.373837, 39.519683], [112.373832, 39.519413], [112.370342, 39.519454], [112.370348, 39.519725], [112.369999, 39.519729], [112.369978, 39.518648], [112.367186, 39.518681], [112.367192, 39.518951], [112.366145, 39.518963], [112.36614, 39.518693], [112.366837, 39.518685], [112.366806, 39.517063], [112.367154, 39.517059], [112.36716, 39.517329], [112.367509, 39.517325], [112.36753, 39.518406], [112.37067, 39.518369], [112.370659, 39.517829], [112.372055, 39.517812], [112.37205, 39.517542], [112.372399, 39.517538], [112.372393, 39.517268], [112.372742, 39.517264], [112.372774, 39.518885], [112.375914, 39.518848], [112.375877, 39.516956], [112.37483, 39.516969], [112.374761, 39.513455], [112.372319, 39.513484], [112.372356, 39.515376], [112.371658, 39.515384], [112.371648, 39.514844], [112.37095, 39.514852], [112.370945, 39.514582], [112.370596, 39.514586], [112.370585, 39.514045], [112.370236, 39.51405], [112.370204, 39.512428], [112.369855, 39.512432], [112.369845, 39.511892], [112.367054, 39.511925], [112.367091, 39.513816], [112.366393, 39.513824], [112.366367, 39.512473], [112.361831, 39.512526], [112.361873, 39.514688], [112.361524, 39.514692], [112.361551, 39.516044], [112.361202, 39.516048], [112.361212, 39.516588], [112.360864, 39.516592], [112.360858, 39.516322], [112.357718, 39.516359], [112.357723, 39.516629], [112.357026, 39.516637], [112.357062, 39.518529], [112.35776, 39.518521], [112.357776, 39.519331], [112.358125, 39.519327], [112.35813, 39.519598], [112.358479, 39.519594], [112.358484, 39.519864], [112.361625, 39.519827], [112.361609, 39.519016], [112.362656, 39.519004], [112.362661, 39.519274], [112.362312, 39.519278], [112.362317, 39.519549], [112.361968, 39.519553], [112.362005, 39.521444], [112.362354, 39.52144], [112.362365, 39.521981], [112.363761, 39.521964], [112.363766, 39.522235], [112.362719, 39.522247], [112.362735, 39.523058], [112.362037, 39.523066], [112.362032, 39.522796], [112.35924, 39.522828], [112.359245, 39.523099], [112.358897, 39.523103], [112.358928, 39.524724], [112.358579, 39.524728]]]}}]}