{"type": "FeatureCollection", "properties": {"note": "矿点先验(GEM/文献)+CLCD2020扰动类大连通域(7x7闭合)自动提取；WGS84", "crs": "EPSG:4326"}, "features": [{"type": "Feature", "properties": {"name": "heidaigou 采排区"}, "geometry": {"type": "Polygon", "coordinates": [[[111.240863, 39.799484], [111.24086, 39.798673], [111.235253, 39.798684], [111.235249, 39.797333], [111.235949, 39.797331], [111.235953, 39.798413], [111.240158, 39.798404], [111.240153, 39.796782], [111.240503, 39.796781], [111.240504, 39.797052], [111.242957, 39.797047], [111.24295, 39.795154], [111.2426, 39.795155], [111.242596, 39.794074], [111.242246, 39.794075], [111.242245, 39.793804], [111.241894, 39.793805], [111.241893, 39.793535], [111.240141, 39.793539], [111.24014, 39.793268], [111.23979, 39.793269], [111.239782, 39.791107], [111.239432, 39.791107], [111.239431, 39.790837], [111.239781, 39.790836], [111.239781, 39.790566], [111.240131, 39.790565], [111.24013, 39.790295], [111.24048, 39.790294], [111.240478, 39.789483], [111.241178, 39.789482], [111.241177, 39.789212], [111.242228, 39.789209], [111.242228, 39.788939], [111.242578, 39.788938], [111.242577, 39.788668], [111.243278, 39.788667], [111.243277, 39.788396], [111.243627, 39.788395], [111.243626, 39.788125], [111.243977, 39.788124], [111.243978, 39.788665], [111.246081, 39.788661], [111.246086, 39.790012], [111.247837, 39.790008], [111.247839, 39.790549], [111.247489, 39.79055], [111.247498, 39.792982], [111.24995, 39.792977], [111.249948, 39.792437], [111.250299, 39.792436], [111.250297, 39.791895], [111.250647, 39.791894], [111.25064, 39.790002], [111.248538, 39.790007], [111.248531, 39.788115], [111.246429, 39.788119], [111.246425, 39.787038], [111.247126, 39.787037], [111.247125, 39.786766], [111.247475, 39.786766], [111.247473, 39.786225], [111.247824, 39.786224], [111.247814, 39.783521], [111.247113, 39.783523], [111.247112, 39.782982], [111.24536, 39.782986], [111.245359, 39.782715], [111.247461, 39.782711], [111.24745, 39.779738], [111.246399, 39.77974], [111.246398, 39.77947], [111.248851, 39.779464], [111.248848, 39.778653], [111.249198, 39.778653], [111.249199, 39.778923], [111.252352, 39.778916], [111.252351, 39.778646], [111.253752, 39.778643], [111.253759, 39.780535], [111.256211, 39.78053], [111.256203, 39.778367], [111.254452, 39.778371], [111.25445, 39.77783], [111.257603, 39.777823], [111.257602, 39.777553], [111.257952, 39.777552], [111.257944, 39.77539], [111.257243, 39.775392], [111.257238, 39.77404], [111.254786, 39.774045], [111.254785, 39.773775], [111.255135, 39.773774], [111.255128, 39.771882], [111.254428, 39.771884], [111.254427, 39.771613], [111.253726, 39.771615], [111.253725, 39.771345], [111.251624, 39.771349], [111.251623, 39.771079], [111.252674, 39.771077], [111.252667, 39.769185], [111.251616, 39.769187], [111.251614, 39.768646], [111.250213, 39.768649], [111.250211, 39.768109], [111.249861, 39.768109], [111.249858, 39.767299], [111.247055, 39.767305], [111.247056, 39.767575], [111.246706, 39.767576], [111.246713, 39.769468], [111.247413, 39.769466], [111.247414, 39.769737], [111.246714, 39.769738], [111.246716, 39.770279], [111.245665, 39.770281], [111.245666, 39.770551], [111.245316, 39.770552], [111.245317, 39.770822], [111.243915, 39.770825], [111.243916, 39.771095], [111.243566, 39.771096], [111.243567, 39.771366], [111.242516, 39.771369], [111.242518, 39.771909], [111.241818, 39.771911], [111.241819, 39.772181], [111.240768, 39.772183], [111.240775, 39.774346], [111.242877, 39.774341], [111.242878, 39.774612], [111.240426, 39.774617], [111.240431, 39.776238], [111.23903, 39.776241], [111.239035, 39.777593], [111.235882, 39.777599], [111.23588, 39.777059], [111.23518, 39.77706], [111.235179, 39.77679], [111.23693, 39.776786], [111.236924, 39.774894], [111.236223, 39.774896], [111.236222, 39.774625], [111.234821, 39.774628], [111.23482, 39.774358], [111.23447, 39.774359], [111.234465, 39.773007], [111.231313, 39.773013], [111.231308, 39.771662], [111.229907, 39.771665], [111.229906, 39.771394], [111.228855, 39.771396], [111.228854, 39.771126], [111.228504, 39.771127], [111.228502, 39.770586], [111.230254, 39.770583], [111.230247, 39.768691], [111.228496, 39.768694], [111.228494, 39.768153], [111.228144, 39.768154], [111.228141, 39.767343], [111.227441, 39.767345], [111.22744, 39.767074], [111.226739, 39.767076], [111.226737, 39.766535], [111.225687, 39.766537], [111.225685, 39.765997], [111.224634, 39.765999], [111.224633, 39.765728], [111.226735, 39.765724], [111.226726, 39.763021], [111.225675, 39.763023], [111.225672, 39.761942], [111.225321, 39.761943], [111.225321, 39.761672], [111.22462, 39.761674], [111.224617, 39.760863], [111.224968, 39.760862], [111.224964, 39.759781], [111.226365, 39.759778], [111.226364, 39.759508], [111.227065, 39.759507], [111.227058, 39.757614], [111.226008, 39.757616], [111.226007, 39.757346], [111.228108, 39.757342], [111.228107, 39.757072], [111.229858, 39.757068], [111.22985, 39.754636], [111.22915, 39.754637], [111.229149, 39.754367], [111.229499, 39.754366], [111.22949, 39.751663], [111.227039, 39.751668], [111.22704, 39.751938], [111.225989, 39.75194], [111.225991, 39.752481], [111.22494, 39.752483], [111.224941, 39.752753], [111.224591, 39.752754], [111.224593, 39.753294], [111.224243, 39.753295], [111.224242, 39.753025], [111.223541, 39.753026], [111.223541, 39.752756], [111.221089, 39.75276], [111.22109, 39.753031], [111.22074, 39.753031], [111.220741, 39.753302], [111.22004, 39.753303], [111.220043, 39.754114], [111.219693, 39.754115], [111.219694, 39.754385], [111.218993, 39.754386], [111.218994, 39.754657], [111.217943, 39.754659], [111.217945, 39.755199], [111.216544, 39.755202], [111.216545, 39.755472], [111.215495, 39.755474], [111.215496, 39.756015], [111.214796, 39.756016], [111.214803, 39.758449], [111.215854, 39.758447], [111.215856, 39.758987], [111.216556, 39.758986], [111.216558, 39.759527], [111.216908, 39.759526], [111.216914, 39.761418], [111.217264, 39.761417], [111.217269, 39.763039], [111.21867, 39.763037], [111.218671, 39.763307], [111.21762, 39.763309], [111.217623, 39.76412], [111.216572, 39.764122], [111.216571, 39.763851], [111.216221, 39.763852], [111.216219, 39.763312], [111.213768, 39.763316], [111.213773, 39.764938], [111.213422, 39.764939], [111.21342, 39.764128], [111.212369, 39.76413], [111.212368, 39.763859], [111.211318, 39.763861], [111.211316, 39.763321], [111.210616, 39.763322], [111.210614, 39.762781], [111.210264, 39.762782], [111.210257, 39.760619], [111.208856, 39.760622], [111.208855, 39.760352], [111.207104, 39.760355], [111.207103, 39.759814], [111.206752, 39.759815], [111.206752, 39.759544], [111.206401, 39.759545], [111.2064, 39.759275], [111.20605, 39.759275], [111.206049, 39.758735], [111.205698, 39.758735], [111.205697, 39.758195], [111.206397, 39.758194], [111.206395, 39.757383], [111.207796, 39.75738], [111.207789, 39.755218], [111.205688, 39.755221], [111.205686, 39.754681], [111.204636, 39.754683], [111.204634, 39.754142], [111.205335, 39.754141], [111.205332, 39.75333], [111.206033, 39.753329], [111.206025, 39.750896], [111.206375, 39.750895], [111.206368, 39.748463], [111.204617, 39.748466], [111.204617, 39.748195], [111.203566, 39.748197], [111.203565, 39.747927], [111.203215, 39.747928], [111.203214, 39.747657], [111.202864, 39.747658], [111.202861, 39.746577], [111.202161, 39.746578], [111.20216, 39.746308], [111.20181, 39.746308], [111.201809, 39.746038], [111.198307, 39.746044], [111.198307, 39.745774], [111.193404, 39.745782], [111.193402, 39.744971], [111.194803, 39.744969], [111.194802, 39.744698], [111.195152, 39.744698], [111.195154, 39.745238], [111.197955, 39.745234], [111.197954, 39.744963], [111.200055, 39.74496], [111.200051, 39.743608], [111.202502, 39.743604], [111.202501, 39.743334], [111.203902, 39.743331], [111.203901, 39.743061], [111.204251, 39.74306], [111.20425, 39.74279], [111.205651, 39.742788], [111.20565, 39.742517], [111.206, 39.742517], [111.205994, 39.740354], [111.206344, 39.740354], [111.206346, 39.740894], [111.207746, 39.740892], [111.207751, 39.742513], [111.209152, 39.742511], [111.209152, 39.742781], [111.206351, 39.742786], [111.206358, 39.744949], [111.206708, 39.744948], [111.206709, 39.745218], [111.21056, 39.745211], [111.210554, 39.743049], [111.211604, 39.743047], [111.211603, 39.742507], [111.211953, 39.742506], [111.211955, 39.743317], [111.210905, 39.743319], [111.210911, 39.745211], [111.211261, 39.74521], [111.211262, 39.74548], [111.213713, 39.745476], [111.213707, 39.743584], [111.214407, 39.743583], [111.214406, 39.743312], [111.215106, 39.743311], [111.215106, 39.743041], [111.216506, 39.743038], [111.216505, 39.742768], [111.218956, 39.742763], [111.21895, 39.740601], [111.21965, 39.740599], [111.219645, 39.738978], [111.219995, 39.738977], [111.219996, 39.739247], [111.222446, 39.739243], [111.22244, 39.73735], [111.22174, 39.737352], [111.221739, 39.737081], [111.22279, 39.737079], [111.222793, 39.738161], [111.225944, 39.738155], [111.225935, 39.735452], [111.224185, 39.735455], [111.22418, 39.734103], [111.225581, 39.734101], [111.225575, 39.732209], [111.222774, 39.732214], [111.222777, 39.733025], [111.221726, 39.733027], [111.221725, 39.732486], [111.220674, 39.732488], [111.220673, 39.732218], [111.221024, 39.732217], [111.221014, 39.729244], [111.218213, 39.729249], [111.218214, 39.72952], [111.217864, 39.72952], [111.217868, 39.730601], [111.216817, 39.730603], [111.21682, 39.731414], [111.21612, 39.731416], [111.216121, 39.731686], [111.215771, 39.731687], [111.215771, 39.731957], [111.214721, 39.731959], [111.214725, 39.73331], [111.214375, 39.733311], [111.214369, 39.731149], [111.211568, 39.731154], [111.21157, 39.731965], [111.21122, 39.731965], [111.211215, 39.730343], [111.212966, 39.73034], [111.212965, 39.73007], [111.213315, 39.730069], [111.213314, 39.729799], [111.213664, 39.729798], [111.213662, 39.728987], [111.214012, 39.728987], [111.214011, 39.728716], [111.215411, 39.728714], [111.21541, 39.728444], [111.216461, 39.728442], [111.216457, 39.72736], [111.219258, 39.727355], [111.219256, 39.726815], [111.219606, 39.726814], [111.219599, 39.724651], [111.217149, 39.724656], [111.21715, 39.724926], [111.2168, 39.724927], [111.2168, 39.725197], [111.21645, 39.725198], [111.216451, 39.725468], [111.214001, 39.725473], [111.214003, 39.726013], [111.211902, 39.726017], [111.211903, 39.726288], [111.209803, 39.726291], [111.209801, 39.725751], [111.211551, 39.725748], [111.211549, 39.724937], [111.212599, 39.724935], [111.212598, 39.724664], [111.212948, 39.724664], [111.212947, 39.724394], [111.214698, 39.72439], [111.214697, 39.72412], [111.215747, 39.724118], [111.215746, 39.723848], [111.219597, 39.723841], [111.219596, 39.72357], [111.219946, 39.72357], [111.21994, 39.721677], [111.21924, 39.721679], [111.219239, 39.721408], [111.220989, 39.721405], [111.220985, 39.720054], [111.223085, 39.72005], [111.223078, 39.717887], [111.225178, 39.717883], [111.225174, 39.716802], [111.226924, 39.716798], [111.226924, 39.716528], [111.228324, 39.716525], [111.228326, 39.717336], [111.232876, 39.717327], [111.232876, 39.717057], [111.233576, 39.717056], [111.233575, 39.716785], [111.235675, 39.716781], [111.235674, 39.716511], [111.236024, 39.71651], [111.236023, 39.71624], [111.236373, 39.716239], [111.236372, 39.715969], [111.236722, 39.715968], [111.236723, 39.716238], [111.237073, 39.716238], [111.237077, 39.717319], [111.237427, 39.717318], [111.237428, 39.717588], [111.237778, 39.717588], [111.237779, 39.717858], [111.238829, 39.717856], [111.238829, 39.718126], [111.238479, 39.718127], [111.23848, 39.718397], [111.23743, 39.718399], [111.237437, 39.720291], [111.238137, 39.72029], [111.23814, 39.721101], [111.23884, 39.721099], [111.238841, 39.72137], [111.237791, 39.721372], [111.237792, 39.721913], [111.237092, 39.721914], [111.237088, 39.720562], [111.233937, 39.720569], [111.233936, 39.720028], [111.232186, 39.720032], [111.232185, 39.719761], [111.229734, 39.719766], [111.229741, 39.721658], [111.229041, 39.72166], [111.229043, 39.722471], [111.228693, 39.722471], [111.228702, 39.725174], [111.230452, 39.725171], [111.230453, 39.725441], [111.228703, 39.725445], [111.228704, 39.725715], [111.228354, 39.725716], [111.228356, 39.726256], [111.228006, 39.726257], [111.228012, 39.728149], [111.231163, 39.728143], [111.23116, 39.727332], [111.23221, 39.72733], [111.232208, 39.726789], [111.232908, 39.726788], [111.232909, 39.727058], [111.23606, 39.727052], [111.236058, 39.726511], [111.236408, 39.726511], [111.236407, 39.72624], [111.237107, 39.726239], [111.237105, 39.725698], [111.237455, 39.725698], [111.237454, 39.725427], [111.237804, 39.725427], [111.237801, 39.724345], [111.238151, 39.724345], [111.238154, 39.725155], [111.241304, 39.725149], [111.241303, 39.724879], [111.241653, 39.724878], [111.241652, 39.724608], [111.242002, 39.724607], [111.241996, 39.722715], [111.242346, 39.722714], [111.242351, 39.724336], [111.244802, 39.724331], [111.244797, 39.722979], [111.245147, 39.722978], [111.245142, 39.721627], [111.247942, 39.721621], [111.247942, 39.721351], [111.250042, 39.721346], [111.250041, 39.721076], [111.251441, 39.721073], [111.251442, 39.721343], [111.255292, 39.721335], [111.255294, 39.721875], [111.258094, 39.721869], [111.258092, 39.721329], [111.258792, 39.721327], [111.258793, 39.721597], [111.259844, 39.721595], [111.259846, 39.722136], [111.262646, 39.722129], [111.26264, 39.720507], [111.26334, 39.720506], [111.263341, 39.720776], [111.265441, 39.720771], [111.265442, 39.721042], [111.266142, 39.72104], [111.266143, 39.72131], [111.266493, 39.72131], [111.266494, 39.72158], [111.266844, 39.721579], [111.266845, 39.721849], [111.267195, 39.721849], [111.267202, 39.72347], [111.268252, 39.723468], [111.268255, 39.724279], [111.270705, 39.724273], [111.270701, 39.723192], [111.271401, 39.72319], [111.271402, 39.723461], [111.272452, 39.723458], [111.272455, 39.724269], [111.274906, 39.724263], [111.274905, 39.723993], [111.276655, 39.723989], [111.276656, 39.724259], [111.279456, 39.724252], [111.279455, 39.723982], [111.280155, 39.72398], [111.280154, 39.72371], [111.280854, 39.723709], [111.280852, 39.723168], [111.281202, 39.723167], [111.281201, 39.722897], [111.282601, 39.722893], [111.282608, 39.724515], [111.280508, 39.72452], [111.280509, 39.724791], [111.279459, 39.724793], [111.279461, 39.725334], [111.27806, 39.725337], [111.278059, 39.725067], [111.277709, 39.725068], [111.277708, 39.724797], [111.274208, 39.724806], [111.274211, 39.725617], [111.271411, 39.725623], [111.271412, 39.725893], [111.270011, 39.725897], [111.270014, 39.726437], [111.268613, 39.726441], [111.268614, 39.726711], [111.268264, 39.726712], [111.268265, 39.726982], [111.267915, 39.726983], [111.267916, 39.727253], [111.267566, 39.727254], [111.267567, 39.727524], [111.266517, 39.727527], [111.266513, 39.726445], [111.267213, 39.726444], [111.267205, 39.724281], [111.266855, 39.724282], [111.266847, 39.72239], [111.264047, 39.722396], [111.264051, 39.723478], [111.263001, 39.72348], [111.263002, 39.72375], [111.261602, 39.723753], [111.261605, 39.724564], [111.260905, 39.724566], [111.260909, 39.725647], [111.260209, 39.725649], [111.260216, 39.727541], [111.261966, 39.727537], [111.261972, 39.729159], [111.259872, 39.729163], [111.259879, 39.731056], [111.26233, 39.73105], [111.262326, 39.729969], [111.264426, 39.729964], [111.264423, 39.729153], [111.265123, 39.729152], [111.265127, 39.730233], [111.265477, 39.730232], [111.265479, 39.730773], [111.265829, 39.730772], [111.265835, 39.732123], [111.266535, 39.732122], [111.266536, 39.732392], [111.265836, 39.732394], [111.265844, 39.734556], [111.266194, 39.734555], [111.266195, 39.734826], [111.266895, 39.734824], [111.266896, 39.735094], [111.268297, 39.735091], [111.2683, 39.735902], [111.269, 39.7359], [111.269002, 39.736441], [111.269352, 39.73644], [111.269354, 39.736981], [111.271805, 39.736975], [111.271791, 39.733461], [111.270391, 39.733464], [111.27039, 39.733194], [111.272841, 39.733188], [111.27283, 39.730485], [111.27318, 39.730484], [111.273181, 39.730755], [111.273531, 39.730754], [111.273535, 39.731835], [111.273185, 39.731836], [111.273195, 39.734269], [111.272845, 39.73427], [111.272852, 39.736162], [111.273202, 39.736161], [111.273206, 39.736972], [111.273906, 39.73697], [111.273907, 39.73724], [111.271456, 39.737246], [111.271457, 39.737516], [111.270757, 39.737518], [111.270764, 39.73941], [111.271465, 39.739409], [111.271469, 39.74049], [111.267968, 39.740498], [111.267972, 39.741579], [111.265871, 39.741584], [111.265872, 39.741854], [111.264471, 39.741857], [111.264473, 39.742128], [111.264122, 39.742129], [111.264131, 39.744291], [111.266932, 39.744285], [111.266931, 39.744014], [111.268331, 39.744011], [111.26833, 39.743741], [111.26868, 39.74374], [111.268684, 39.744551], [111.269034, 39.74455], [111.269037, 39.745361], [111.269737, 39.745359], [111.269739, 39.7459], [111.27044, 39.745898], [111.270444, 39.74698], [111.270094, 39.74698], [111.270101, 39.748872], [111.270801, 39.748871], [111.270808, 39.750493], [111.271858, 39.75049], [111.271859, 39.75076], [111.27256, 39.750759], [111.272563, 39.75157], [111.273263, 39.751568], [111.273264, 39.751838], [111.273615, 39.751838], [111.273616, 39.752108], [111.276067, 39.752102], [111.27606, 39.75048], [111.276411, 39.750479], [111.276407, 39.749669], [111.279909, 39.74966], [111.27991, 39.74993], [111.277809, 39.749935], [111.27781, 39.750206], [111.27711, 39.750207], [111.277119, 39.75237], [111.276068, 39.752372], [111.276079, 39.755075], [111.277129, 39.755073], [111.277136, 39.756695], [111.278187, 39.756692], [111.278188, 39.756963], [111.278538, 39.756962], [111.278542, 39.758043], [111.279593, 39.75804], [111.279595, 39.758581], [111.279945, 39.75858], [111.279946, 39.75885], [111.281347, 39.758847], [111.281351, 39.759658], [111.281, 39.759659], [111.281006, 39.76101], [111.280656, 39.761011], [111.280649, 39.759389], [111.277147, 39.759398], [111.277152, 39.760749], [111.275751, 39.760753], [111.275758, 39.762374], [111.275407, 39.762375], [111.275402, 39.761024], [111.273651, 39.761028], [111.273647, 39.759947], [111.271195, 39.759952], [111.271199, 39.761034], [111.269448, 39.761038], [111.269456, 39.76293], [111.272608, 39.762922], [111.272609, 39.763193], [111.272259, 39.763194], [111.27226, 39.763464], [111.271559, 39.763466], [111.271558, 39.763195], [111.267005, 39.763206], [111.267006, 39.763476], [111.266305, 39.763478], [111.266306, 39.763748], [111.265256, 39.76375], [111.265264, 39.765913], [111.266665, 39.76591], [111.266671, 39.767531], [111.265971, 39.767533], [111.265981, 39.770236], [111.271235, 39.770224], [111.271236, 39.770494], [111.269835, 39.770497], [111.269837, 39.771038], [111.269487, 39.771039], [111.269486, 39.770769], [111.268785, 39.77077], [111.268784, 39.7705], [111.266332, 39.770506], [111.266339, 39.772127], [111.265638, 39.772129], [111.265639, 39.772399], [111.265289, 39.7724], [111.26529, 39.77267], [111.264239, 39.772673], [111.264241, 39.773213], [111.263891, 39.773214], [111.263893, 39.773755], [111.263543, 39.773756], [111.263545, 39.774296], [111.262844, 39.774298], [111.262853, 39.77673], [111.263204, 39.77673], [111.263205, 39.777], [111.262854, 39.777001], [111.262855, 39.777271], [111.262505, 39.777272], [111.262513, 39.779434], [111.262864, 39.779433], [111.262865, 39.779704], [111.261463, 39.779707], [111.261464, 39.779977], [111.261114, 39.779978], [111.261122, 39.78214], [111.261823, 39.782139], [111.261824, 39.782409], [111.260773, 39.782412], [111.260782, 39.784844], [111.264286, 39.784836], [111.264285, 39.784566], [111.265686, 39.784563], [111.265687, 39.784833], [111.266738, 39.784831], [111.266739, 39.785101], [111.264637, 39.785106], [111.264638, 39.785376], [111.263587, 39.785379], [111.26359, 39.786189], [111.26324, 39.78619], [111.263249, 39.788623], [111.265351, 39.788618], [111.265358, 39.79051], [111.267811, 39.790505], [111.267805, 39.788883], [111.268856, 39.78888], [111.26885, 39.787259], [111.269901, 39.787256], [111.269897, 39.786175], [111.270948, 39.786172], [111.270951, 39.786983], [111.274104, 39.786976], [111.274106, 39.787517], [111.272004, 39.787522], [111.272006, 39.788062], [111.271305, 39.788064], [111.271306, 39.788334], [111.270956, 39.788335], [111.270962, 39.789957], [111.269911, 39.789959], [111.269916, 39.79104], [111.269565, 39.791041], [111.269566, 39.791311], [111.267814, 39.791316], [111.267815, 39.791586], [111.267115, 39.791587], [111.267117, 39.792128], [111.266416, 39.79213], [111.266414, 39.791589], [111.26291, 39.791597], [111.262921, 39.79457], [111.263972, 39.794568], [111.263974, 39.795109], [111.265376, 39.795105], [111.265379, 39.795916], [111.266781, 39.795913], [111.266782, 39.796183], [111.265731, 39.796186], [111.265738, 39.798078], [111.266088, 39.798077], [111.266093, 39.799158], [111.265742, 39.799159], [111.265743, 39.799429], [111.263991, 39.799433], [111.26399, 39.799163], [111.262588, 39.799166], [111.262587, 39.798896], [111.260835, 39.7989], [111.260834, 39.79863], [111.260484, 39.79863], [111.260483, 39.79836], [111.260132, 39.798361], [111.260131, 39.798091], [111.259781, 39.798091], [111.25978, 39.797821], [111.259429, 39.797822], [111.259428, 39.797552], [111.259078, 39.797552], [111.259075, 39.796741], [111.258024, 39.796744], [111.25802, 39.795663], [111.256968, 39.795665], [111.256961, 39.793773], [111.25591, 39.793775], [111.255908, 39.793235], [111.253455, 39.79324], [111.253457, 39.793781], [111.253107, 39.793781], [111.253108, 39.794052], [111.252057, 39.794054], [111.252059, 39.794594], [111.251708, 39.794595], [111.251715, 39.796487], [111.252766, 39.796485], [111.252767, 39.796755], [111.253118, 39.796755], [111.253128, 39.799458], [111.240863, 39.799484]]]}}]}